[{"OBJECT_NAME":"STARLINK-34720","OBJECT_ID":"2025-259AD","EPOCH":"2026-03-09T22:08:57.300288","MEAN_MOTION":15.27603998,"ECCENTRICITY":0.0002116,"INCLINATION":42.9991,"RA_OF_ASC_NODE":273.3072,"ARG_OF_PERICENTER":251.1839,"MEAN_ANOMALY":108.8783,"EPHEMERIS_TYPE":0,"CLASSIFICATION_TYPE":"U","NORAD_CAT_ID":66449,"ELEMENT_SET_NO":999,"REV_AT_EPOCH":1941,"BSTAR":0.0015886871,"MEAN_MOTION_DOT":0.00043748,"MEAN_MOTION_DDOT":0},{"OBJECT_NAME":"ELEKTRON 3 DEB","OBJECT_ID":"1964-038C","EPOCH":"2026-03-09T14:47:36.581568","MEAN_MOTION":12.78113746,"ECCENTRICITY":0.1255449,"INCLINATION":60.6702,"RA_OF_ASC_NODE":86.4515,"ARG_OF_PERICENTER":334.4391,"MEAN_ANOMALY":19.9275,"EPHEMERIS_TYPE":0,"CLASSIFICATION_TYPE":"U","NORAD_CAT_ID":831,"ELEMENT_SET_NO":999,"REV_AT_EPOCH":35318,"BSTAR":0.0029694,"MEAN_MOTION_DOT":0.00032212,"MEAN_MOTION_DDOT":0}]
